[{"OBJECT_NAME":"ONEWEB-0350","OBJECT_ID":"2021-083AE","EPOCH":"2025-12-01T19:41:51.334656","MEAN_MOTION":13.13469835,"ECCENTRICITY":0.0001428,"INCLINATION":87.8986,"RA_OF_ASC_NODE":359.4515,"ARG_OF_PERICENTER":89.2384,"MEAN_ANOMALY":270.8909,"EPHEMERIS_TYPE":0,"CLASSIFICATION_TYPE":"U","NORAD_CAT_ID":49214,"ELEMENT_SET_NO":999,"REV_AT_EPOCH":20502,"BSTAR":0.00080892,"MEAN_MOTION_DOT":3.08e-6,"MEAN_MOTION_DDOT":0},{"OBJECT_NAME":"ONEWEB-0351","OBJECT_ID":"2021-083AF","EPOCH":"2025-12-01T20:05:16.659168","MEAN_MOTION":13.20773235,"ECCENTRICITY":0.0002415,"INCLINATION":87.9195,"RA_OF_ASC_NODE":313.7942,"ARG_OF_PERICENTER":67.0332,"MEAN_ANOMALY":293.1056,"EPHEMERIS_TYPE":0,"CLASSIFICATION_TYPE":"U","NORAD_CAT_ID":49215,"ELEMENT_SET_NO":999,"REV_AT_EPOCH":21072,"BSTAR":0.0001633,"MEAN_MOTION_DOT":7.9e-7,"MEAN_MOTION_DDOT":0},{"OBJECT_NAME":"ONEWEB-0352","OBJECT_ID":"2021-083AG","EPOCH":"2025-12-01T13:44:44.145024","MEAN_MOTION":13.13470453,"ECCENTRICITY":0.0002043,"INCLINATION":87.8976,"RA_OF_ASC_NODE":359.5248,"ARG_OF_PERICENTER":83.8477,"MEAN_ANOMALY":276.2885,"EPHEMERIS_TYPE":0,"CLASSIFICATION_TYPE":"U","NORAD_CAT_ID":49216,"ELEMENT_SET_NO":999,"REV_AT_EPOCH":20508,"BSTAR":-0.00051548,"MEAN_MOTION_DOT":-1.75e-6,"MEAN_MOTION_DDOT":0},{"OBJECT_NAME":"ONEWEB-0354","OBJECT_ID":"2021-083AH","EPOCH":"2025-12-01T11:36:21.877920","MEAN_MOTION":13.20774109,"ECCENTRICITY":0.0001531,"INCLINATION":87.9193,"RA_OF_ASC_NODE":313.8636,"ARG_OF_PERICENTER":82.7185,"MEAN_ANOMALY":277.4122,"EPHEMERIS_TYPE":0,"CLASSIFICATION_TYPE":"U","NORAD_CAT_ID":49217,"ELEMENT_SET_NO":999,"REV_AT_EPOCH":21071,"BSTAR":-5.576e-5,"MEAN_MOTION_DOT":-1.0e-7,"MEAN_MOTION_DDOT":0},{"OBJECT_NAME":"ONEWEB-0355","OBJECT_ID":"2021-083AJ","EPOCH":"2025-12-01T19:55:27.928704","MEAN_MOTION":13.13470903,"ECCENTRICITY":0.0001702,"INCLINATION":87.8977,"RA_OF_ASC_NODE":359.4864,"ARG_OF_PERICENTER":85.3898,"MEAN_ANOMALY":274.7426,"EPHEMERIS_TYPE":0,"CLASSIFICATION_TYPE":"U","NORAD_CAT_ID":49218,"ELEMENT_SET_NO":999,"REV_AT_EPOCH":20499,"BSTAR":0.0010697,"MEAN_MOTION_DOT":4.03e-6,"MEAN_MOTION_DDOT":0},{"OBJECT_NAME":"ONEWEB-0357","OBJECT_ID":"2021-083AK","EPOCH":"2025-12-01T11:31:49.914048","MEAN_MOTION":13.20773724,"ECCENTRICITY":0.0001808,"INCLINATION":87.919,"RA_OF_ASC_NODE":313.8608,"ARG_OF_PERICENTER":80.2724,"MEAN_ANOMALY":279.8613,"EPHEMERIS_TYPE":0,"CLASSIFICATION_TYPE":"U","NORAD_CAT_ID":49219,"ELEMENT_SET_NO":999,"REV_AT_EPOCH":21071,"BSTAR":0.00012368,"MEAN_MOTION_DOT":6.3e-7,"MEAN_MOTION_DDOT":0},{"OBJECT_NAME":"ONEWEB-0332","OBJECT_ID":"2021-090A","EPOCH":"2025-12-01T16:37:54.323904","MEAN_MOTION":13.14502457,"ECCENTRICITY":0.0002024,"INCLINATION":87.8974,"RA_OF_ASC_NODE":329.0648,"ARG_OF_PERICENTER":88.0081,"MEAN_ANOMALY":272.1281,"EPHEMERIS_TYPE":0,"CLASSIFICATION_TYPE":"U","NORAD_CAT_ID":49279,"ELEMENT_SET_NO":999,"REV_AT_EPOCH":20163,"BSTAR":0.00010333,"MEAN_MOTION_DOT":5.1e-7,"MEAN_MOTION_DDOT":0},{"OBJECT_NAME":"ONEWEB-0347","OBJECT_ID":"2021-090B","EPOCH":"2025-12-01T20:23:39.721056","MEAN_MOTION":13.20772237,"ECCENTRICITY":0.0002064,"INCLINATION":87.9187,"RA_OF_ASC_NODE":313.7982,"ARG_OF_PERICENTER":90.3437,"MEAN_ANOMALY":269.7933,"EPHEMERIS_TYPE":0,"CLASSIFICATION_TYPE":"U","NORAD_CAT_ID":49280,"ELEMENT_SET_NO":999,"REV_AT_EPOCH":20499,"BSTAR":2.1286e-5,"MEAN_MOTION_DOT":2.2e-7,"MEAN_MOTION_DDOT":0},{"OBJECT_NAME":"ONEWEB-0349","OBJECT_ID":"2021-090C","EPOCH":"2025-12-01T15:41:49.654752","MEAN_MOTION":13.20774459,"ECCENTRICITY":0.0001835,"INCLINATION":87.9182,"RA_OF_ASC_NODE":313.8361,"ARG_OF_PERICENTER":82.7706,"MEAN_ANOMALY":277.3636,"EPHEMERIS_TYPE":0,"CLASSIFICATION_TYPE":"U","NORAD_CAT_ID":49281,"ELEMENT_SET_NO":999,"REV_AT_EPOCH":20375,"BSTAR":0.00040424,"MEAN_MOTION_DOT":1.77e-6,"MEAN_MOTION_DDOT":0},{"OBJECT_NAME":"ONEWEB-0353","OBJECT_ID":"2021-090D","EPOCH":"2025-12-01T12:47:15.617760","MEAN_MOTION":13.14502979,"ECCENTRICITY":0.0002031,"INCLINATION":87.8987,"RA_OF_ASC_NODE":329.0811,"ARG_OF_PERICENTER":89.6005,"MEAN_ANOMALY":270.5358,"EPHEMERIS_TYPE":0,"CLASSIFICATION_TYPE":"U","NORAD_CAT_ID":49282,"ELEMENT_SET_NO":999,"REV_AT_EPOCH":20161,"BSTAR":0.00024799,"MEAN_MOTION_DOT":1.05e-6,"MEAN_MOTION_DDOT":0},{"OBJECT_NAME":"ONEWEB-0356","OBJECT_ID":"2021-090E","EPOCH":"2025-12-01T12:01:21.812160","MEAN_MOTION":13.20771301,"ECCENTRICITY":0.0001944,"INCLINATION":87.9188,"RA_OF_ASC_NODE":313.8582,"ARG_OF_PERICENTER":114.1224,"MEAN_ANOMALY":246.0113,"EPHEMERIS_TYPE":0,"CLASSIFICATION_TYPE":"U","NORAD_CAT_ID":49283,"ELEMENT_SET_NO":999,"REV_AT_EPOCH":20373,"BSTAR":-0.00052089,"MEAN_MOTION_DOT":-1.99e-6,"MEAN_MOTION_DDOT":0},{"OBJECT_NAME":"ONEWEB-0358","OBJECT_ID":"2021-090F","EPOCH":"2025-12-01T16:22:43.317120","MEAN_MOTION":13.20771,"ECCENTRICITY":0.0001707,"INCLINATION":87.9194,"RA_OF_ASC_NODE":313.823,"ARG_OF_PERICENTER":88.0322,"MEAN_ANOMALY":272.1007,"EPHEMERIS_TYPE":0,"CLASSIFICATION_TYPE":"U","NORAD_CAT_ID":49284,"ELEMENT_SET_NO":999,"REV_AT_EPOCH":20448,"BSTAR":-0.00064137,"MEAN_MOTION_DOT":-2.48e-6,"MEAN_MOTION_DDOT":0},{"OBJECT_NAME":"ONEWEB-0359","OBJECT_ID":"2021-090G","EPOCH":"2025-12-01T10:50:55.888800","MEAN_MOTION":13.20771388,"ECCENTRICITY":0.0001401,"INCLINATION":87.9185,"RA_OF_ASC_NODE":313.8693,"ARG_OF_PERICENTER":80.726,"MEAN_ANOMALY":279.4032,"EPHEMERIS_TYPE":0,"CLASSIFICATION_TYPE":"U","NORAD_CAT_ID":49285,"ELEMENT_SET_NO":999,"REV_AT_EPOCH":20443,"BSTAR":6.9397e-5,"MEAN_MOTION_DOT":4.1e-7,"MEAN_MOTION_DDOT":0},{"OBJECT_NAME":"ONEWEB-0360","OBJECT_ID":"2021-090H","EPOCH":"2025-12-01T16:04:35.066784","MEAN_MOTION":13.20772256,"ECCENTRICITY":0.0001703,"INCLINATION":87.9186,"RA_OF_ASC_NODE":313.8342,"ARG_OF_PERICENTER":82.5476,"MEAN_ANOMALY":277.5851,"EPHEMERIS_TYPE":0,"CLASSIFICATION_TYPE":"U","NORAD_CAT_ID":49286,"ELEMENT_SET_NO":999,"REV_AT_EPOCH":20377,"BSTAR":0.00027288,"MEAN_MOTION_DOT":1.24e-6,"MEAN_MOTION_DDOT":0},{"OBJECT_NAME":"ONEWEB-0361","OBJECT_ID":"2021-090J","EPOCH":"2025-12-01T11:59:07.175040","MEAN_MOTION":13.20772151,"ECCENTRICITY":0.0001786,"INCLINATION":87.9183,"RA_OF_ASC_NODE":313.8639,"ARG_OF_PERICENTER":91.6657,"MEAN_ANOMALY":268.4681,"EPHEMERIS_TYPE":0,"CLASSIFICATION_TYPE":"U","NORAD_CAT_ID":49287,"ELEMENT_SET_NO":999,"REV_AT_EPOCH":20420,"BSTAR":0.00025081,"MEAN_MOTION_DOT":1.15e-6,"MEAN_MOTION_DDOT":0},{"OBJECT_NAME":"ONEWEB-0362","OBJECT_ID":"2021-090K","EPOCH":"2025-12-01T14:22:04.401120","MEAN_MOTION":13.197235,"ECCENTRICITY":0.0001849,"INCLINATION":87.9191,"RA_OF_ASC_NODE":344.3026,"ARG_OF_PERICENTER":82.89,"MEAN_ANOMALY":277.2443,"EPHEMERIS_TYPE":0,"CLASSIFICATION_TYPE":"U","NORAD_CAT_ID":49288,"ELEMENT_SET_NO":999,"REV_AT_EPOCH":20085,"BSTAR":0.00013839,"MEAN_MOTION_DOT":6.8e-7,"MEAN_MOTION_DDOT":0},{"OBJECT_NAME":"ONEWEB-0363","OBJECT_ID":"2021-090L","EPOCH":"2025-12-01T16:00:01.304928","MEAN_MOTION":13.20770219,"ECCENTRICITY":0.0001716,"INCLINATION":87.9198,"RA_OF_ASC_NODE":313.828,"ARG_OF_PERICENTER":97.0014,"MEAN_ANOMALY":263.1314,"EPHEMERIS_TYPE":0,"CLASSIFICATION_TYPE":"U","NORAD_CAT_ID":49289,"ELEMENT_SET_NO":999,"REV_AT_EPOCH":20423,"BSTAR":0.00024726,"MEAN_MOTION_DOT":1.14e-6,"MEAN_MOTION_DDOT":0},{"OBJECT_NAME":"ONEWEB-0364","OBJECT_ID":"2021-090M","EPOCH":"2025-12-01T20:32:44.097216","MEAN_MOTION":13.20769918,"ECCENTRICITY":0.0001791,"INCLINATION":87.9184,"RA_OF_ASC_NODE":313.8149,"ARG_OF_PERICENTER":89.23,"MEAN_ANOMALY":270.9039,"EPHEMERIS_TYPE":0,"CLASSIFICATION_TYPE":"U","NORAD_CAT_ID":49290,"ELEMENT_SET_NO":999,"REV_AT_EPOCH":20539,"BSTAR":-0.00018115,"MEAN_MOTION_DOT":-6.1e-7,"MEAN_MOTION_DDOT":0},{"OBJECT_NAME":"ONEWEB-0365","OBJECT_ID":"2021-090N","EPOCH":"2025-12-01T12:46:32.708928","MEAN_MOTION":13.19723417,"ECCENTRICITY":0.0001908,"INCLINATION":87.9213,"RA_OF_ASC_NODE":344.2791,"ARG_OF_PERICENTER":89.1342,"MEAN_ANOMALY":271.0009,"EPHEMERIS_TYPE":0,"CLASSIFICATION_TYPE":"U","NORAD_CAT_ID":49291,"ELEMENT_SET_NO":999,"REV_AT_EPOCH":20035,"BSTAR":-0.00014306,"MEAN_MOTION_DOT":-4.4e-7,"MEAN_MOTION_DDOT":0},{"OBJECT_NAME":"ONEWEB-0366","OBJECT_ID":"2021-090P","EPOCH":"2025-12-01T16:21:55.315872","MEAN_MOTION":13.14502249,"ECCENTRICITY":0.000172,"INCLINATION":87.898,"RA_OF_ASC_NODE":329.0689,"ARG_OF_PERICENTER":89.5711,"MEAN_ANOMALY":270.5616,"EPHEMERIS_TYPE":0,"CLASSIFICATION_TYPE":"U","NORAD_CAT_ID":49292,"ELEMENT_SET_NO":999,"REV_AT_EPOCH":20161,"BSTAR":0.00050246,"MEAN_MOTION_DOT":1.99e-6,"MEAN_MOTION_DDOT":0},{"OBJECT_NAME":"ONEWEB-0367","OBJECT_ID":"2021-090Q","EPOCH":"2025-12-01T15:57:44.481024","MEAN_MOTION":13.20769637,"ECCENTRICITY":0.0001909,"INCLINATION":87.9198,"RA_OF_ASC_NODE":313.8273,"ARG_OF_PERICENTER":79.3282,"MEAN_ANOMALY":280.8067,"EPHEMERIS_TYPE":0,"CLASSIFICATION_TYPE":"U","NORAD_CAT_ID":49293,"ELEMENT_SET_NO":999,"REV_AT_EPOCH":20375,"BSTAR":0.00032606,"MEAN_MOTION_DOT":1.46e-6,"MEAN_MOTION_DDOT":0},{"OBJECT_NAME":"ONEWEB-0368","OBJECT_ID":"2021-090R","EPOCH":"2025-12-01T15:19:06.839904","MEAN_MOTION":13.20769938,"ECCENTRICITY":0.0002435,"INCLINATION":87.9187,"RA_OF_ASC_NODE":313.8637,"ARG_OF_PERICENTER":100.0671,"MEAN_ANOMALY":260.0738,"EPHEMERIS_TYPE":0,"CLASSIFICATION_TYPE":"U","NORAD_CAT_ID":49294,"ELEMENT_SET_NO":999,"REV_AT_EPOCH":20490,"BSTAR":0.00015714,"MEAN_MOTION_DOT":7.7e-7,"MEAN_MOTION_DDOT":0},{"OBJECT_NAME":"ONEWEB-0369","OBJECT_ID":"2021-090S","EPOCH":"2025-12-01T18:07:14.109024","MEAN_MOTION":13.19722968,"ECCENTRICITY":0.0001875,"INCLINATION":87.9202,"RA_OF_ASC_NODE":344.2634,"ARG_OF_PERICENTER":90.1934,"MEAN_ANOMALY":269.9413,"EPHEMERIS_TYPE":0,"CLASSIFICATION_TYPE":"U","NORAD_CAT_ID":49295,"ELEMENT_SET_NO":999,"REV_AT_EPOCH":20037,"BSTAR":0.00023453,"MEAN_MOTION_DOT":1.07e-6,"MEAN_MOTION_DDOT":0},{"OBJECT_NAME":"ONEWEB-0370","OBJECT_ID":"2021-090T","EPOCH":"2025-12-01T16:11:22.189632","MEAN_MOTION":13.20770243,"ECCENTRICITY":0.0001686,"INCLINATION":87.9188,"RA_OF_ASC_NODE":313.8312,"ARG_OF_PERICENTER":76.1349,"MEAN_ANOMALY":283.9971,"EPHEMERIS_TYPE":0,"CLASSIFICATION_TYPE":"U","NORAD_CAT_ID":49296,"ELEMENT_SET_NO":999,"REV_AT_EPOCH":20379,"BSTAR":0.00027044,"MEAN_MOTION_DOT":1.23e-6,"MEAN_MOTION_DDOT":0}]
